{"type": "FeatureCollection", "features": [ {"type": "Feature", "properties": {"norad_id": 40315, "name": "COSMOS 2501 (702K)", "group": "gnss", "lat": 59.579948305066495, "lon": -41.432700687647824, "alt_km": 19130.587186346453, "timestamp": "2025-12-27T16:33:30.465976+00:00", "meta": {"OBJECT_NAME": "COSMOS 2501 (702K)", "OBJECT_ID": "2014-075A", "EPOCH": "2025-12-27T01:58:52.696704", "MEAN_MOTION": 2.13101389, "ECCENTRICITY": 0.00201, "INCLINATION": 63.616, "RA_OF_ASC_NODE": 196.3279, "ARG_OF_PERICENTER": 203.8362, "MEAN_ANOMALY": 156.1227, "EPHEMERIS_TYPE": 0, "CLASSIFICATION_TYPE": "U", "NORAD_CAT_ID": 40315, "ELEMENT_SET_NO": 999, "REV_AT_EPOCH": 8618, "BSTAR": 0, "MEAN_MOTION_DOT": 1.2e-06, "MEAN_MOTION_DDOT": 0}, "tle": {"line1": "1 40315U 14075A   25361.08255436  .00000120  00000+0  00000+0 0  9991", "line2": "2 40315  63.6160 196.3279 0020100 203.8362 156.1227  2.13101389 86186"}}, "geometry": {"type": "Point", "coordinates": [-41.432700687647824, 59.579948305066495]}}, {"type": "Feature", "properties": {"norad_id": 40534, "name": "GPS BIIF-9  (PRN 26)", "group": "gnss", "lat": 50.500583850204, "lon": -33.98065157415234, "alt_km": 20060.01956928365, "timestamp": "2025-12-27T16:33:30.465989+00:00", "meta": {"OBJECT_NAME": "GPS BIIF-9  (PRN 26)", "OBJECT_ID": "2015-013A", "EPOCH": "2025-12-26T13:11:10.214592", "MEAN_MOTION": 2.00561683, "ECCENTRICITY": 0.010755, "INCLINATION": 53.1959, "RA_OF_ASC_NODE": 211.3182, "ARG_OF_PERICENTER": 38.8079, "MEAN_ANOMALY": 322.028, "EPHEMERIS_TYPE": 0, "CLASSIFICATION_TYPE": "U", "NORAD_CAT_ID": 40534, "ELEMENT_SET_NO": 999, "REV_AT_EPOCH": 7836, "BSTAR": 0, "MEAN_MOTION_DOT": 8.8e-07, "MEAN_MOTION_DDOT": 0}, "tle": {"line1": "1 40534U 15013A   25360.54942378  .00000088  00000+0  00000+0 0  9998", "line2": "2 40534  53.1959 211.3182 0107550  38.8079 322.0280  2.00561683 78363"}}, "geometry": {"type": "Point", "coordinates": [-33.98065157415234, 50.500583850204]}}, {"type": "Feature", "properties": {"norad_id": 40544, "name": "GSAT0203 (GALILEO 7)", "group": "gnss", "lat": -26.70387045248769, "lon": -174.54049341263806, "alt_km": 23216.786509925252, "timestamp": "2025-12-27T16:33:30.466001+00:00", "meta": {"OBJECT_NAME": "GSAT0203 (GALILEO 7)", "OBJECT_ID": "2015-017A", "EPOCH": "2025-12-26T18:10:04.466496", "MEAN_MOTION": 1.70475666, "ECCENTRICITY": 0.00064599, "INCLINATION": 56.8428, "RA_OF_ASC_NODE": 346.298, "ARG_OF_PERICENTER": 275.3549, "MEAN_ANOMALY": 84.5807, "EPHEMERIS_TYPE": 0, "CLASSIFICATION_TYPE": "U", "NORAD_CAT_ID": 40544, "ELEMENT_SET_NO": 999, "REV_AT_EPOCH": 6626, "BSTAR": 0, "MEAN_MOTION_DOT": -6.1e-07, "MEAN_MOTION_DDOT": 0}, "tle": {"line1": "1 40544U 15017A   25360.75699614 -.00000061  00000+0  00000+0 0  9990", "line2": "2 40544  56.8428 346.2980 0006459 275.3549  84.5807  1.70475666 66267"}}, "geometry": {"type": "Point", "coordinates": [-174.54049341263806, -26.70387045248769]}}, {"type": "Feature", "properties": {"norad_id": 40545, "name": "GSAT0204 (GALILEO 8)", "group": "gnss", "lat": 43.778925234893435, "lon": 25.050856729461948, "alt_km": 23232.354268050087, "timestamp": "2025-12-27T16:33:30.466012+00:00", "meta": {"OBJECT_NAME": "GSAT0204 (GALILEO 8)", "OBJECT_ID": "2015-017B", "EPOCH": "2025-12-20T13:26:28.826304", "MEAN_MOTION": 1.70475697, "ECCENTRICITY": 0.0006133, "INCLINATION": 56.8522, "RA_OF_ASC_NODE": 346.4847, "ARG_OF_PERICENTER": 266.5447, "MEAN_ANOMALY": 93.3948, "EPHEMERIS_TYPE": 0, "CLASSIFICATION_TYPE": "U", "NORAD_CAT_ID": 40545, "ELEMENT_SET_NO": 999, "REV_AT_EPOCH": 2920, "BSTAR": 0, "MEAN_MOTION_DOT": -7e-07, "MEAN_MOTION_DDOT": 0}, "tle": {"line1": "1 40545U 15017B   25354.56005586 -.00000070  00000+0  00000+0 0  9992", "line2": "2 40545  56.8522 346.4847 0006133 266.5447  93.3948  1.70475697 29206"}}, "geometry": {"type": "Point", "coordinates": [25.050856729461948, 43.778925234893435]}}, {"type": "Feature", "properties": {"norad_id": 40549, "name": "BEIDOU-3S IGSO-1S (C31)", "group": "gnss", "lat": 28.032937408808184, "lon": 90.5136464259197, "alt_km": 35683.29560555756, "timestamp": "2025-12-27T16:33:30.466023+00:00", "meta": {"OBJECT_NAME": "BEIDOU-3S IGSO-1S (C31)", "OBJECT_ID": "2015-019A", "EPOCH": "2025-12-26T19:27:32.429664", "MEAN_MOTION": 1.00290016, "ECCENTRICITY": 0.00365106, "INCLINATION": 49.5251, "RA_OF_ASC_NODE": 297.5457, "ARG_OF_PERICENTER": 194.1839, "MEAN_ANOMALY": 350.566, "EPHEMERIS_TYPE": 0, "CLASSIFICATION_TYPE": "U", "NORAD_CAT_ID": 40549, "ELEMENT_SET_NO": 999, "REV_AT_EPOCH": 3934, "BSTAR": 0, "MEAN_MOTION_DOT": -1.81e-06, "MEAN_MOTION_DDOT": 0}, "tle": {"line1": "1 40549U 15019A   25360.81079201 -.00000181  00000+0  00000+0 0  9991", "line2": "2 40549  49.5251 297.5457 0036510 194.1839 350.5660  1.00290016 39342"}}, "geometry": {"type": "Point", "coordinates": [90.5136464259197, 28.032937408808184]}}, {"type": "Feature", "properties": {"norad_id": 40730, "name": "GPS BIIF-10 (PRN 08)", "group": "gnss", "lat": -10.614709227661079, "lon": -93.63296985479344, "alt_km": 19955.727823743342, "timestamp": "2025-12-27T16:33:30.466034+00:00", "meta": {"OBJECT_NAME": "GPS BIIF-10 (PRN 08)", "OBJECT_ID": "2015-033A", "EPOCH": "2025-12-26T05:05:23.462304", "MEAN_MOTION": 2.00564909, "ECCENTRICITY": 0.0111756, "INCLINATION": 54.1189, "RA_OF_ASC_NODE": 274.2184, "ARG_OF_PERICENTER": 27.1685, "MEAN_ANOMALY": 333.4602, "EPHEMERIS_TYPE": 0, "CLASSIFICATION_TYPE": "U", "NORAD_CAT_ID": 40730, "ELEMENT_SET_NO": 999, "REV_AT_EPOCH": 7652, "BSTAR": 0, "MEAN_MOTION_DOT": -2e-07, "MEAN_MOTION_DDOT": 0}, "tle": {"line1": "1 40730U 15033A   25360.21207711 -.00000020  00000+0  00000+0 0  9994", "line2": "2 40730  54.1189 274.2184 0111756  27.1685 333.4602  2.00564909 76528"}}, "geometry": {"type": "Point", "coordinates": [-93.63296985479344, -10.614709227661079]}}, {"type": "Feature", "properties": {"norad_id": 40748, "name": "BEIDOU-3S M2S (C58)", "group": "gnss", "lat": 40.417768844096905, "lon": 91.38431474382595, "alt_km": 21549.86970285968, "timestamp": "2025-12-27T16:33:30.466045+00:00", "meta": {"OBJECT_NAME": "BEIDOU-3S M2S (C58)", "OBJECT_ID": "2015-037A", "EPOCH": "2025-12-26T23:05:37.447872", "MEAN_MOTION": 1.86229536, "ECCENTRICITY": 0.00118283, "INCLINATION": 55.026, "RA_OF_ASC_NODE": 307.9762, "ARG_OF_PERICENTER": 271.2374, "MEAN_ANOMALY": 88.6344, "EPHEMERIS_TYPE": 0, "CLASSIFICATION_TYPE": "U", "NORAD_CAT_ID": 40748, "ELEMENT_SET_NO": 999, "REV_AT_EPOCH": 7091, "BSTAR": 0, "MEAN_MOTION_DOT": -5.8e-07, "MEAN_MOTION_DDOT": 0}, "tle": {"line1": "1 40748U 15037A   25360.96223898 -.00000058  00000+0  00000+0 0  9994", "line2": "2 40748  55.0260 307.9762 0011828 271.2374  88.6344  1.86229536 70915"}}, "geometry": {"type": "Point", "coordinates": [91.38431474382595, 40.417768844096905]}}, {"type": "Feature", "properties": {"norad_id": 40749, "name": "BEIDOU-3S M1S (C57)", "group": "gnss", "lat": -20.37667661985829, "lon": -67.13346613284027, "alt_km": 21519.40638786933, "timestamp": "2025-12-27T16:33:30.466063+00:00", "meta": {"OBJECT_NAME": "BEIDOU-3S M1S (C57)", "OBJECT_ID": "2015-037B", "EPOCH": "2025-12-27T04:34:21.423072", "MEAN_MOTION": 1.86253811, "ECCENTRICITY": 0.0003729, "INCLINATION": 55.0221, "RA_OF_ASC_NODE": 307.9572, "ARG_OF_PERICENTER": 3.3585, "MEAN_ANOMALY": 356.651, "EPHEMERIS_TYPE": 0, "CLASSIFICATION_TYPE": "U", "NORAD_CAT_ID": 40749, "ELEMENT_SET_NO": 999, "REV_AT_EPOCH": 7092, "BSTAR": 0, "MEAN_MOTION_DOT": -5.9e-07, "MEAN_MOTION_DDOT": 0}, "tle": {"line1": "1 40749U 15037B   25361.19052573 -.00000059  00000+0  00000+0 0  9992", "line2": "2 40749  55.0221 307.9572 0003729   3.3585 356.6510  1.86253811 70928"}}, "geometry": {"type": "Point", "coordinates": [-67.13346613284027, -20.37667661985829]}}, {"type": "Feature", "properties": {"norad_id": 40889, "name": "GSAT0205 (GALILEO 9)", "group": "gnss", "lat": -14.601593659557782, "lon": 56.87137230069478, "alt_km": 23241.14559519183, "timestamp": "2025-12-27T16:33:30.466087+00:00", "meta": {"OBJECT_NAME": "GSAT0205 (GALILEO 9)", "OBJECT_ID": "2015-045A", "EPOCH": "2025-12-23T06:16:38.782272", "MEAN_MOTION": 1.70473104, "ECCENTRICITY": 0.00062228, "INCLINATION": 55.0001, "RA_OF_ASC_NODE": 226.4673, "ARG_OF_PERICENTER": 42.5636, "MEAN_ANOMALY": 317.5856, "EPHEMERIS_TYPE": 0, "CLASSIFICATION_TYPE": "U", "NORAD_CAT_ID": 40889, "ELEMENT_SET_NO": 999, "REV_AT_EPOCH": 6401, "BSTAR": 0, "MEAN_MOTION_DOT": 7.3e-07, "MEAN_MOTION_DDOT": 0}, "tle": {"line1": "1 40889U 15045A   25357.26155998  .00000073  00000+0  00000+0 0  9999", "line2": "2 40889  55.0001 226.4673 0006222  42.5636 317.5856  1.70473104 64013"}}, "geometry": {"type": "Point", "coordinates": [56.87137230069478, -14.601593659557782]}}, {"type": "Feature", "properties": {"norad_id": 40890, "name": "GSAT0206 (GALILEO 10)", "group": "gnss", "lat": 46.569732889402964, "lon": -85.92138790184113, "alt_km": 23205.248638036537, "timestamp": "2025-12-27T16:33:30.466100+00:00", "meta": {"OBJECT_NAME": "GSAT0206 (GALILEO 10)", "OBJECT_ID": "2015-045B", "EPOCH": "2025-12-27T00:02:25.632384", "MEAN_MOTION": 1.70473162, "ECCENTRICITY": 0.000413, "INCLINATION": 54.998, "RA_OF_ASC_NODE": 226.3589, "ARG_OF_PERICENTER": 41.9933, "MEAN_ANOMALY": 318.124, "EPHEMERIS_TYPE": 0, "CLASSIFICATION_TYPE": "U", "NORAD_CAT_ID": 40890, "ELEMENT_SET_NO": 999, "REV_AT_EPOCH": 6410, "BSTAR": 0, "MEAN_MOTION_DOT": 7e-07, "MEAN_MOTION_DDOT": 0}, "tle": {"line1": "1 40890U 15045B   25361.00168556  .00000070  00000+0  00000+0 0  9999", "line2": "2 40890  54.9980 226.3589 0004130  41.9933 318.1240  1.70473162 64101"}}, "geometry": {"type": "Point", "coordinates": [-85.92138790184113, 46.569732889402964]}}]}